COMMENT,ORIGINATOR,NORAD_CAT_ID,OBJECT_NAME,OBJECT_TYPE,CLASSIFICATION_TYPE,INTLDES,EPOCH,EPOCH_MICROSECONDS,MEAN_MOTION,ECCENTRICITY,INCLINATION,RA_OF_ASC_NODE,ARG_OF_PERICENTER,MEAN_ANOMALY,EPHEMERIS_TYPE,ELEMENT_SET_NO,REV_AT_EPOCH,BSTAR,MEAN_MOTION_DOT,MEAN_MOTION_DDOT,FILE,TLE_LINE0,TLE_LINE1,TLE_LINE2,OBJECT_ID,OBJECT_NUMBER,SEMIMAJOR_AXIS,PERIOD,APOGEE,PERIGEE,DECAYED
"GENERATED VIA SPACETRACK.ORG API","18 SPCS","56496","STARLINK-5526","PAYLOAD","U","23064BA","2023-10-16 16:27:45","933984","15.69927657","0.0003939","70","158.3592","264.618","95.4566","0","999","2532","0.000081243","0.00009569","0","4038650","0 STARLINK-5526","1 56496U 23064BA  23289.68594831  .00009569  00000-0  81243-4 0  9994","2 56496  70.0000 158.3592 0003939 264.6180  95.4566 15.69927657 25327","2023-064BA","56496","6737.241","91.724","361.760","356.452","0"
"GENERATED VIA SPACETRACK.ORG API","18 SPCS","55775","STARLINK-5809","PAYLOAD","U","23028AL","2023-10-16 22:13:22","981152","14.9832673","0.0002308","70","269.9745","269.7404","90.3491","0","999","3550","0.00014939","0.0000169","0","4037312","0 STARLINK-5809","1 55775U 23028AL  23289.92596043  .00001690  00000-0  14939-3 0  9991","2 55775  70.0000 269.9745 0002308 269.7404  90.3491 14.98326730 35507","2023-028AL","55775","6950.203","96.107","573.672","570.464","0"
"GENERATED VIA SPACETRACK.ORG API","18 SPCS","55774","STARLINK-5812","PAYLOAD","U","23028AK","2023-10-17 06:20:03","927840","14.98327761","0.0002575","70","269.1471","264.8666","95.2199","0","999","3555","0.00015604","0.00001769","0","4038418","0 STARLINK-5812","1 55774U 23028AK  23290.26393435  .00001769  00000-0  15604-3 0  9996","2 55774  70.0000 269.1471 0002575 264.8666  95.2199 14.98327761 35555","2023-028AK","55774","6950.200","96.107","573.854","570.275","0"
"GENERATED VIA SPACETRACK.ORG API","18 SPCS","55774","STARLINK-5812","PAYLOAD","U","23028AK","2023-10-17 06:20:03","927840","14.98327761","0.0002575","70","269.1471","264.8666","95.2199","0","999","3555","0.00015604","0.00001769","0","4039107","0 STARLINK-5812","1 55774U 23028AK  23290.26393435  .00001769  00000-0  15604-3 0  9996","2 55774  70.0000 269.1471 0002575 264.8666  95.2199 14.98327761 35555","2023-028AK","55774","6950.200","96.107","573.854","570.275","0"
"GENERATED VIA SPACETRACK.ORG API","18 SPCS","55786","STARLINK-5823","PAYLOAD","U","23028AX","2023-10-17 07:55:52","720320","14.98326678","0.0002938","70","249.1005","271.5638","88.5185","0","999","3604","0.00011891","0.00001326","0","4038669","0 STARLINK-5823","1 55786U 23028AX  23290.33047130  .00001326  00000-0  11891-3 0  9998","2 55786  70.0000 249.1005 0002938 271.5638  88.5185 14.98326678 36047","2023-028AX","55786","6950.203","96.107","574.110","570.026","0"
"GENERATED VIA SPACETRACK.ORG API","18 SPCS","55786","STARLINK-5823","PAYLOAD","U","23028AX","2023-10-17 07:55:52","720320","14.98326678","0.0002938","70","249.1005","271.5638","88.5185","0","999","3605","0.00011891","0.00001326","0","4039107","0 STARLINK-5823","1 55786U 23028AX  23290.33047130  .00001326  00000-0  11891-3 0  9998","2 55786  70.0000 249.1005 0002938 271.5638  88.5185 14.98326678 36058","2023-028AX","55786","6950.203","96.107","574.110","570.026","0"
"GENERATED VIA SPACETRACK.ORG API","18 SPCS","55934","STARLINK-5927","PAYLOAD","U","23037W","2023-10-17 11:33:44","268768","14.98328091","0.0002761","70","328.5908","273.2309","86.8534","0","999","3303","0.00018777","0.00002148","0","4039107","0 STARLINK-5927","1 55934U 23037W   23290.48176237  .00002148  00000-0  18777-3 0  9993","2 55934  70.0000 328.5908 0002761 273.2309  86.8534 14.98328091 33030","2023-037W","55934","6950.199","96.107","573.983","570.145","0"
"GENERATED VIA SPACETRACK.ORG API","18 SPCS","55292","STARLINK-5325","PAYLOAD","U","23010Z","2023-10-17 11:47:11","409792","14.98318794","0.0002381","70","68.5823","282.1306","77.9586","0","999","4201","0.00020913","0.00002402","0","4038790","0 STARLINK-5325","1 55292U 23010Z   23290.49110428  .00002402  00000-0  20913-3 0  9990","2 55292  70.0000  68.5823 0002381 282.1306  77.9586 14.98318794 42013","2023-010Z","55292","6950.228","96.108","573.747","570.438","0"
"GENERATED VIA SPACETRACK.ORG API","18 SPCS","55292","STARLINK-5325","PAYLOAD","U","23010Z","2023-10-17 11:47:11","409792","14.98318794","0.0002381","70","68.5823","282.1306","77.9586","0","999","4232","0.00020913","0.00002402","0","4039107","0 STARLINK-5325","1 55292U 23010Z   23290.49110428  .00002402  00000-0  20913-3 0  9990","2 55292  70.0000  68.5823 0002381 282.1306  77.9586 14.98318794 42327","2023-010Z","55292","6950.228","96.108","573.747","570.438","0"
"GENERATED VIA SPACETRACK.ORG API","18 SPCS","55941","STARLINK-5914","PAYLOAD","U","23037AD","2023-10-17 12:21:35","269920","14.98328421","0.0002942","70","328.7081","274.7876","85.2947","0","999","3337","0.00016559","0.00001883","0","4038658","0 STARLINK-5914","1 55941U 23037AD  23290.51499155  .00001883  00000-0  16559-3 0  9993","2 55941  70.0000 328.7081 0002942 274.7876  85.2947 14.98328421 33373","2023-037AD","55941","6950.198","96.107","574.108","570.018","0"
"GENERATED VIA SPACETRACK.ORG API","18 SPCS","55941","STARLINK-5914","PAYLOAD","U","23037AD","2023-10-17 12:21:35","269920","14.98328421","0.0002942","70","328.7081","274.7876","85.2947","0","999","3303","0.00016559","0.00001883","0","4039107","0 STARLINK-5914","1 55941U 23037AD  23290.51499155  .00001883  00000-0  16559-3 0  9993","2 55941  70.0000 328.7081 0002942 274.7876  85.2947 14.98328421 33036","2023-037AD","55941","6950.198","96.107","574.108","570.018","0"
"GENERATED VIA SPACETRACK.ORG API","18 SPCS","55940","STARLINK-5864","PAYLOAD","U","23037AC","2023-10-17 13:21:39","534912","14.983253","0.0002655","70","328.4507","257.4824","102.6038","0","999","3304","0.0001275","0.00001428","0","4039107","0 STARLINK-5864","1 55940U 23037AC  23290.55670758  .00001428  00000-0  12750-3 0  9990","2 55940  70.0000 328.4507 0002655 257.4824 102.6038 14.98325300 33046","2023-037AC","55940","6950.207","96.107","573.918","570.227","0"
"GENERATED VIA SPACETRACK.ORG API","18 SPCS","55938","STARLINK-5909","PAYLOAD","U","23037AA","2023-10-17 13:27:39","720096","14.98334889","0.0002659","70","328.4642","268.7943","91.2911","0","999","3304","0.00034834","0.00004066","0","4039107","0 STARLINK-5909","1 55938U 23037AA  23290.56087639  .00004066  00000-0  34834-3 0  9996","2 55938  70.0000 328.4642 0002659 268.7943  91.2911 14.98334889 33049","2023-037AA","55938","6950.178","96.107","573.891","570.195","0"
"GENERATED VIA SPACETRACK.ORG API","18 SPCS","56781","STARLINK-5989","PAYLOAD","U","23078Q","2023-10-17 13:40:41","491488","14.98330274","0.0003159","70","28.4972","270.9758","89.1039","0","999","2174","0.00011788","0.00001314","0","4039107","0 STARLINK-5989","1 56781U 23078Q   23290.56992467  .00001314  00000-0  11788-3 0  9998","2 56781  70.0000  28.4972 0003159 270.9758  89.1039 14.98330274 21749","2023-078Q","56781","6950.192","96.107","574.253","569.861","0"
"GENERATED VIA SPACETRACK.ORG API","18 SPCS","55676","STARLINK-5300","PAYLOAD","U","23021BA","2023-10-17 14:00:01","224","15.45407737","0.0003568","70","190.8764","260.4356","60.4384","0","999","606","-0.019261","-0.00843648","0","4039107","0 STARLINK-5300","1 55676U 23021BA  23290.58334491 -.00843648  00000-0 -19261-1 0  9995","2 55676  70.0000 190.8764 0003568 260.4356  60.4384 15.45407737  6061","2023-021BA","55676","6808.317","93.179","432.611","427.753","0"
"GENERATED VIA SPACETRACK.ORG API","18 SPCS","55273","STARLINK-5291","PAYLOAD","U","23010E","2023-10-17 17:30:00","454752","14.98330122","0.0002928","70","88.0812","268.5168","91.5656","0","999","4187","0.000070185","0.00000745","0","4040140","0 STARLINK-5291","1 55273U 23010E   23290.72917193  .00000745  00000-0  70185-4 0  9994","2 55273  70.0000  88.0812 0002928 268.5168  91.5656 14.98330122 41870","2023-010E","55273","6950.193","96.107","574.093","570.022","0"
"GENERATED VIA SPACETRACK.ORG API","18 SPCS","56814","STARLINK-6059","PAYLOAD","U","23078AZ","2023-10-18 00:05:55","761504","14.99305084","0.000311","70","27.2025","279.9886","80.0923","0","999","2181","-0.000015969","-0.00000289","0","4040140","0 STARLINK-6059","1 56814U 23078AZ  23291.00411761 -.00000289  00000-0 -15969-4 0  9996","2 56814  70.0000  27.2025 0003110 279.9886  80.0923 14.99305084 21812","2023-078AZ","56814","6947.179","96.044","571.205","566.884","0"
"GENERATED VIA SPACETRACK.ORG API","18 SPCS","56817","STARLINK-5982","PAYLOAD","U","23078BC","2023-10-18 00:17:34","12608","14.98333828","0.0003236","70","27.2306","270.7537","89.3251","0","999","2207","-0.0000022417","-0.0000012","0","4039580","0 STARLINK-5982","1 56817U 23078BC  23291.01219922 -.00000120  00000-0 -22417-5 0  9996","2 56817  70.0000  27.2306 0003236 270.7537  89.3251 14.98333828 22079","2023-078BC","56817","6950.181","96.107","574.295","569.797","0"
"GENERATED VIA SPACETRACK.ORG API","18 SPCS","56489","STARLINK-5923","PAYLOAD","U","23064AT","2023-10-18 00:35:27","831552","15.69943988","0.0004564","70","154.5997","272.8925","87.1748","0","999","2518","0.00010555","0.00012511","0","4040140","0 STARLINK-5923","1 56489U 23064AT  23291.02462768  .00012511  00000-0  10555-3 0  9998","2 56489  70.0000 154.5997 0004564 272.8925  87.1748 15.69943988 25188","2023-064AT","56489","6737.194","91.723","362.134","355.984","0"
"GENERATED VIA SPACETRACK.ORG API","18 SPCS","55297","STARLINK-5284","PAYLOAD","U","23010AE","2023-10-18 02:06:22","937472","14.9834035","0.0003333","70","67.0536","269.7472","90.3305","0","999","4241","0.0001271","0.00001424","0","4040140","0 STARLINK-5284","1 55297U 23010AE  23291.08776548  .00001424  00000-0  12710-3 0  9991","2 55297  70.0000  67.0536 0003333 269.7472  90.3305 14.98340350 42411","2023-010AE","55297","6950.161","96.106","574.342","569.709","0"
